HST                     
1 20580U 90037B   26162.21026604  .00005021  00000+0  15696-3 0  9999
2 20580  28.4707 121.4212 0001970  81.6673 278.4146 15.30680019787654
POLAR                   
1 23802U 96013A   26161.87519765  .00000124  00000+0  00000+0 0  9993
2 23802  79.8459 227.1261 6464299 209.2978  89.4613  1.29846139144774
SWAS                    
1 25560U 98071A   26162.58229240  .00003245  00000+0  20784-3 0  9999
2 25560  69.8965 241.9726 0008877 265.1791  94.8360 15.09593453496424
CXO                     
1 25867U 99040B   26164.08641897  .00000611  00000+0  00000+0 0  9998
2 25867  56.1211 116.7320 7849026 310.2825   0.0985  0.37806491 17304
XMM-NEWTON              
1 25989U 99066A   26163.36279180  .00000079  00000+0  00000+0 0  9991
2 25989  64.5165 283.0486 4676939  65.0051   0.0920  0.50123487 22986
TERRA                   
1 25994U 99068A   26162.61800161  .00000331  00000+0  76311-4 0  9999
2 25994  97.9458 212.3849 0001165 212.7664 264.0543 14.61098725408798
CLUSTER II-FM7 (SAMBA)  
1 26410U 00041A   26163.67757317  .00005012  00000+0  00000+0 0  9995
2 26410 149.9129  50.0471 9050232 267.1318 359.9673  0.44876884 20290
CLUSTER II-FM8 (TANGO)  
1 26464U 00045B   26161.68499571  .00004607  00000+0  00000+0 0  9991
2 26464 150.1502  50.7513 9053420 267.6711   3.1468  0.44409835 20283
ODIN                    
1 26702U 01007A   26162.37580449  .00145955  00000+0  10180-2 0  9992
2 26702  97.3848 202.9521 0006706 150.0292 210.1357 15.73864745388487
TIMED                   
1 26998U 01055B   26162.58885804  .00001111  00000+0  10445-3 0  9998
2 26998  74.0676 246.2903 0000801 344.9535  15.1625 14.95283246329989
CORIOLIS                
1 27640U 03001A   26162.55997411  .00000096  00000+0  65621-4 0  9999
2 27640  98.7126 169.5307 0013098 225.9098 134.1001 14.19943314213422
SORCE                   
1 27651U 03004A   26162.62714730  .00002625  00000+0  19863-3 0  9999
2 27651  39.9914 293.3998 0017258   7.8161 352.2899 15.03683998271063
MOST                    
1 27843U 03031D   26162.57954392  .00000062  00000+0  48700-4 0  9992
2 27843  98.7044 170.3837 0008672 268.7564  91.2619 14.21321395189915
SCISAT 1                
1 27858U 03036A   26162.48560650  .00000462  00000+0  63745-4 0  9993
2 27858  73.9285 182.6712 0008662 251.9878 108.0354 14.81442151230608
SWIFT                   
1 28485U 04047A   26162.52522244  .00060510  00000+0  51483-3 0  9990
2 28485  20.5545 228.5627 0002046 197.4245 162.6131 15.67804210185970
HINODE (SOLAR-B)        
1 29479U 06041A   26162.59854948  .00000614  00000+0  11399-3 0  9997
2 29479  98.0549 178.8335 0016224 309.0274  50.9486 14.68615502 54057
SHIJIAN-6 02A (SJ-6 02A)
1 29505U 06046A   26162.61647514  .00007034  00000+0  36056-3 0  9994
2 29505  97.6367 203.6414 0004107 136.8873 223.2682 15.16878468 71422
SHIJIAN-6 02B (SJ-6 02B)
1 29506U 06046B   26162.61466569  .00001505  00000+0  12124-3 0  9991
2 29506  97.7166 191.7078 0015017  76.4442 283.8454 15.01363846 69909
FGRST (GLAST)           
1 33053U 08029A   26162.53193186  .00003028  00000+0  10820-3 0  9992
2 33053  25.5814 243.7508 0007602 258.7530 101.2154 15.23922087994976
SDO                     
1 36395U 10005A   26162.29141987 -.00000074  00000+0  00000+0 0  9990
2 36395  34.6389  86.4327 0001607  52.7574 123.3287  1.00270396 60005
CRYOSAT 2               
1 36508U 10013A   26162.56788929  .00000125  00000+0  30310-4 0  9996
2 36508  92.0350 275.9358 0002200  87.3850 272.7610 14.51897310857269
X-SAT                   
1 37389U 11015C   26162.60909704  .00000103  00000+0  61343-4 0  9994
2 37389  98.3506 139.8981 0014339   4.8010 355.3305 14.25204721786884
GCOM-W1 (SHIZUKU)       
1 38337U 12025A   26162.63037470  .00000395  00000+0  97580-4 0  9990
2 38337  98.2022 103.2702 0001842  79.0553  99.7731 14.57119515748226
NUSTAR                  
1 38358U 12031A   26162.66668981  .00003971  00000+0  19256-3 0  9996
2 38358   6.0265  75.5421 0007628  16.5075 244.7827 15.08750143  1301
NEOSSAT                 
1 39089U 13009D   26162.49521747  .00000136  00000+0  61662-4 0  9992
2 39089  98.4175 342.6633 0009791 262.8605  97.1468 14.35824467695927
BRITE-AUSTRIA           
1 39091U 13009F   26162.42702338  .00000141  00000+0  62670-4 0  9991
2 39091  98.3993 342.0055 0008992 255.9460 104.0727 14.36539758696220
IRIS                    
1 39197U 13033A   26162.50822124  .00000912  00000+0  11063-3 0  9995
2 39197  97.9334   1.8031 0023962 340.9576  19.0741 14.85874066699538
HISAKI (SPRINT-A)       
1 39253U 13049A   26162.23666596  .00000128  00000+0  86305-4 0  9995
2 39253  29.7197 250.2666 0136892 328.6235  30.6229 13.55544055630619
CASSIOPE                
1 39265U 13055A   26162.58469188  .00043142 -55205-6  47358-3 0  9993
2 39265  80.9146  73.5212 0294782  81.2239 282.2252 15.24666325666812
STSAT-3                 
1 39422U 13066G   26162.58608973  .00002532  00000+0  19389-3 0  9993
2 39422  97.6211 132.5643 0011092  59.6742 300.5579 15.02722599683365
SWARM B                 
1 39451U 13067A   26162.56909142  .00003201  00000+0  11415-3 0  9992
2 39451  87.7436 344.0244 0003371  88.2050 271.9585 15.28517568682389
